[Satellite]
VERSION=1.1
NAME=AQUA
NICKNAME=AQUA
TLE1=1 27424U 02022A   18020.92068319  .00000130  00000-0  38943-4 0  9999
TLE2=2 27424  98.2284 324.1987 0001957 119.3785 313.4834 14.57098040835936
